start=new Date('2023-05-08T00:00:00.000Z').valueOf();
sats=[{"RCS_SIZE":"LARGE","MEAN_MOTION_DOT":"-0.00000495","REV_AT_EPOCH":"12400","SITE":"AFETR","EPOCH":"2023-05-07T21:37:59.903328","TIME_SYSTEM":"UTC","EPHEMERIS_TYPE":"0","SEMIMAJOR_AXIS":"6925.460","TLE_LINE2":"2 47649  53.0542  25.9385 0001339  60.7775 299.3348 15.06363655124006","ARG_OF_PERICENTER":"60.7775","APOAPSIS":"548.252","ECCENTRICITY":"0.00013390","PERIOD":"95.594","COUNTRY_CODE":"US","INCLINATION":"53.0542","OBJECT_NAME":"STARLINK-2032","OBJECT_ID":"2021-012AF","LAUNCH_DATE":"2021-02-16","OBJECT_TYPE":"PAYLOAD","REF_FRAME":"TEME","MEAN_ELEMENT_THEORY":"SGP4","MEAN_MOTION_DDOT":"0.0000000000000","FILE":"3903413","MEAN_ANOMALY":"299.3348","CENTER_NAME":"EARTH","TLE_LINE1":"1 47649U 21012AF  23127.90138777 -.00000495  00000-0 -14388-4 0  9991","NORAD_CAT_ID":"47649","GP_ID":"231427338","MEAN_MOTION":"15.06363655","PERIAPSIS":"546.398","CLASSIFICATION_TYPE":"U","ELEMENT_SET_NO":"999","BSTAR":"-0.00001438800000","DECAY_DATE":null,"RA_OF_ASC_NODE":"25.9385"},{"LAUNCH_DATE":"2021-02-16","OBJECT_TYPE":"PAYLOAD","REF_FRAME":"TEME","TLE_LINE2":"2 47650  53.0543  26.0083 0001371 119.6926 240.4200 15.06392737123987","ARG_OF_PERICENTER":"119.6926","APOAPSIS":"548.185","ECCENTRICITY":"0.00013710","COUNTRY_CODE":"US","INCLINATION":"53.0543","OBJECT_NAME":"STARLINK-2033","OBJECT_ID":"2021-012AG","PERIOD":"95.593","EPOCH":"2023-05-07T21:16:46.565184","SITE":"AFETR","TIME_SYSTEM":"UTC","EPHEMERIS_TYPE":"0","SEMIMAJOR_AXIS":"6925.371","MEAN_MOTION_DOT":"0.00027990","RCS_SIZE":"LARGE","REV_AT_EPOCH":"12398","BSTAR":"0.00189090000000","DECAY_DATE":null,"RA_OF_ASC_NODE":"26.0083","NORAD_CAT_ID":"47650","MEAN_MOTION":"15.06392737","GP_ID":"231427588","ELEMENT_SET_NO":"999","CLASSIFICATION_TYPE":"U","PERIAPSIS":"546.286","TLE_LINE1":"1 47650U 21012AG  23127.88665006  .00027990  00000-0  18909-2 0  9998","CENTER_NAME":"EARTH","MEAN_ELEMENT_THEORY":"SGP4","MEAN_MOTION_DDOT":"0.0000000000000","FILE":"3903413","MEAN_ANOMALY":"240.4200"},{"TLE_LINE1":"1 47651U 21012AH  23127.92535272  .00028582  00000-0  19302-2 0  9991","CENTER_NAME":"EARTH","MEAN_ANOMALY":"346.0141","FILE":"3903413","MEAN_MOTION_DDOT":"0.0000000000000","MEAN_ELEMENT_THEORY":"SGP4","RA_OF_ASC_NODE":"45.8786","DECAY_DATE":null,"BSTAR":"0.00193020000000","PERIAPSIS":"546.957","CLASSIFICATION_TYPE":"U","ELEMENT_SET_NO":"999","GP_ID":"231428340","MEAN_MOTION":"15.06395329","NORAD_CAT_ID":"47651","SEMIMAJOR_AXIS":"6925.363","EPHEMERIS_TYPE":"0","TIME_SYSTEM":"UTC","SITE":"AFETR","EPOCH":"2023-05-07T22:12:30.475008","REV_AT_EPOCH":"12372","MEAN_MOTION_DOT":"0.00028582","RCS_SIZE":"LARGE","REF_FRAME":"TEME","OBJECT_TYPE":"PAYLOAD","LAUNCH_DATE":"2021-02-16","PERIOD":"95.592","INCLINATION":"53.0559","COUNTRY_CODE":"US","OBJECT_NAME":"STARLINK-2035","OBJECT_ID":"2021-012AH","ECCENTRICITY":"0.00003910","APOAPSIS":"547.499","ARG_OF_PERICENTER":"14.0859","TLE_LINE2":"2 47651  53.0559  45.8786 0000391  14.0859 346.0141 15.06395329123727"},{"EPHEMERIS_TYPE":"0","SEMIMAJOR_AXIS":"6925.433","EPOCH":"2023-05-07T21:08:49.197408","SITE":"AFETR","TIME_SYSTEM":"UTC","REV_AT_EPOCH":"12371","RCS_SIZE":"LARGE","MEAN_MOTION_DOT":"0.00021838","OBJECT_TYPE":"PAYLOAD","REF_FRAME":"TEME","LAUNCH_DATE":"2021-02-16","APOAPSIS":"548.143","ECCENTRICITY":"0.00012200","INCLINATION":"53.0552","COUNTRY_CODE":"US","OBJECT_ID":"2021-012AJ","OBJECT_NAME":"STARLINK-2036","PERIOD":"95.594","TLE_LINE2":"2 47652  53.0552  46.0357 0001220  82.2025 277.9102 15.06372534123713","ARG_OF_PERICENTER":"82.2025","CENTER_NAME":"EARTH","TLE_LINE1":"1 47652U 21012AJ  23127.88112497  .00021838  00000-0  14815-2 0  9998","FILE":"3903413","MEAN_ANOMALY":"277.9102","MEAN_ELEMENT_THEORY":"SGP4","MEAN_MOTION_DDOT":"0.0000000000000","RA_OF_ASC_NODE":"46.0357","DECAY_DATE":null,"BSTAR":"0.00148150000000","MEAN_MOTION":"15.06372534","GP_ID":"231429090","ELEMENT_SET_NO":"999","CLASSIFICATION_TYPE":"U","PERIAPSIS":"546.453","NORAD_CAT_ID":"47652"},{"SITE":"AFETR","EPOCH":"2023-05-07T21:00:50.694336","TIME_SYSTEM":"UTC","EPHEMERIS_TYPE":"0","SEMIMAJOR_AXIS":"6925.372","MEAN_MOTION_DOT":"0.00029350","RCS_SIZE":"LARGE","REV_AT_EPOCH":"12398","LAUNCH_DATE":"2021-02-16","OBJECT_TYPE":"PAYLOAD","REF_FRAME":"TEME","TLE_LINE2":"2 47653  53.0546  26.0563 0001316 119.6441 240.4680 15.06392214123989","ARG_OF_PERICENTER":"119.6441","ECCENTRICITY":"0.00013160","APOAPSIS":"548.149","PERIOD":"95.593","COUNTRY_CODE":"US","INCLINATION":"53.0546","OBJECT_NAME":"STARLINK-2037","OBJECT_ID":"2021-012AK","CENTER_NAME":"EARTH","TLE_LINE1":"1 47653U 21012AK  23127.87558674  .00029350  00000-0  19815-2 0  9991","MEAN_ELEMENT_THEORY":"SGP4","MEAN_MOTION_DDOT":"0.0000000000000","FILE":"3903413","MEAN_ANOMALY":"240.4680","DECAY_DATE":null,"BSTAR":"0.00198150000000","RA_OF_ASC_NODE":"26.0563","NORAD_CAT_ID":"47653","GP_ID":"231427838","MEAN_MOTION":"15.06392214","PERIAPSIS":"546.326","CLASSIFICATION_TYPE":"U","ELEMENT_SET_NO":"999"},{"CENTER_NAME":"EARTH","TLE_LINE1":"1 47654U 21012AL  23127.22130408  .00028702  00000-0  19351-2 0  9997","MEAN_MOTION_DDOT":"0.0000000000000","MEAN_ELEMENT_THEORY":"SGP4","MEAN_ANOMALY":"248.0712","FILE":"3903215","BSTAR":"0.00193510000000","DECAY_DATE":null,"RA_OF_ASC_NODE":"48.9906","NORAD_CAT_ID":"47654","CLASSIFICATION_TYPE":"U","PERIAPSIS":"546.467","ELEMENT_SET_NO":"999","GP_ID":"231397259","MEAN_MOTION":"15.06454818","TIME_SYSTEM":"UTC","SITE":"AFETR","EPOCH":"2023-05-07T05:18:40.672512","SEMIMAJOR_AXIS":"6925.181","EPHEMERIS_TYPE":"0","RCS_SIZE":"LARGE","MEAN_MOTION_DOT":"0.00028702","REV_AT_EPOCH":"12361","LAUNCH_DATE":"2021-02-16","REF_FRAME":"TEME","OBJECT_TYPE":"PAYLOAD","ARG_OF_PERICENTER":"112.0366","TLE_LINE2":"2 47654  53.0553  48.9906 0000836 112.0366 248.0712 15.06454818123610","PERIOD":"95.589","COUNTRY_CODE":"US","INCLINATION":"53.0553","OBJECT_NAME":"STARLINK-2038","OBJECT_ID":"2021-012AL","ECCENTRICITY":"0.00008360","APOAPSIS":"547.624"},{"OBJECT_TYPE":"PAYLOAD","REF_FRAME":"TEME","LAUNCH_DATE":"2021-02-16","APOAPSIS":"547.894","ECCENTRICITY":"0.00012670","PERIOD":"95.588","OBJECT_ID":"2021-012AM","COUNTRY_CODE":"US","INCLINATION":"53.0555","OBJECT_NAME":"STARLINK-2039","TLE_LINE2":"2 47655  53.0555  49.3233 0001267 118.3075 241.8042 15.06464390123608","ARG_OF_PERICENTER":"118.3075","EPHEMERIS_TYPE":"0","SEMIMAJOR_AXIS":"6925.151","SITE":"AFETR","EPOCH":"2023-05-07T03:32:31.531488","TIME_SYSTEM":"UTC","REV_AT_EPOCH":"12360","RCS_SIZE":"LARGE","MEAN_MOTION_DOT":"0.00046331","RA_OF_ASC_NODE":"49.3233","BSTAR":"0.00310350000000","DECAY_DATE":null,"GP_ID":"231397510","MEAN_MOTION":"15.06464390","PERIAPSIS":"546.139","CLASSIFICATION_TYPE":"U","ELEMENT_SET_NO":"999","NORAD_CAT_ID":"47655","CENTER_NAME":"EARTH","TLE_LINE1":"1 47655U 21012AM  23127.14758717  .00046331  00000-0  31035-2 0  9999","FILE":"3903215","MEAN_ANOMALY":"241.8042","MEAN_ELEMENT_THEORY":"SGP4","MEAN_MOTION_DDOT":"0.0000000000000"},{"TIME_SYSTEM":"UTC","EPOCH":"2023-05-07T21:27:22.583232","SITE":"AFETR","SEMIMAJOR_AXIS":"6925.385","EPHEMERIS_TYPE":"0","MEAN_MOTION_DOT":"0.00019668","RCS_SIZE":"LARGE","REV_AT_EPOCH":"12399","LAUNCH_DATE":"2021-02-16","REF_FRAME":"TEME","OBJECT_TYPE":"PAYLOAD","ARG_OF_PERICENTER":"176.7923","TLE_LINE2":"2 47656  53.0547  25.9821 0000849 176.7923 183.3072 15.06388044123994","INCLINATION":"53.0547","COUNTRY_CODE":"US","OBJECT_ID":"2021-012AN","OBJECT_NAME":"STARLINK-2040","PERIOD":"95.593","APOAPSIS":"547.838","ECCENTRICITY":"0.00008490","CENTER_NAME":"EARTH","TLE_LINE1":"1 47656U 21012AN  23127.89401138  .00019668  00000-0  13360-2 0  9998","MEAN_MOTION_DDOT":"0.0000000000000","MEAN_ELEMENT_THEORY":"SGP4","MEAN_ANOMALY":"183.3072","FILE":"3903413","BSTAR":"0.00133600000000","DECAY_DATE":null,"RA_OF_ASC_NODE":"25.9821","NORAD_CAT_ID":"47656","ELEMENT_SET_NO":"999","PERIAPSIS":"546.662","CLASSIFICATION_TYPE":"U","MEAN_MOTION":"15.06388044","GP_ID":"231428591"},{"LAUNCH_DATE":"2021-02-16","REF_FRAME":"TEME","OBJECT_TYPE":"PAYLOAD","ARG_OF_PERICENTER":"90.0267","TLE_LINE2":"2 47657  53.0541  49.2235 0001304  90.0267 270.0871 15.06447995123603","PERIOD":"95.589","COUNTRY_CODE":"US","INCLINATION":"53.0541","OBJECT_NAME":"STARLINK-2041","OBJECT_ID":"2021-012AP","APOAPSIS":"547.970","ECCENTRICITY":"0.00013040","TIME_SYSTEM":"UTC","SITE":"AFETR","EPOCH":"2023-05-07T04:04:22.364256","SEMIMAJOR_AXIS":"6925.201","EPHEMERIS_TYPE":"0","MEAN_MOTION_DOT":"0.00023693","RCS_SIZE":"LARGE","REV_AT_EPOCH":"12360","BSTAR":"0.00160210000000","DECAY_DATE":null,"RA_OF_ASC_NODE":"49.2235","NORAD_CAT_ID":"47657","PERIAPSIS":"546.163","CLASSIFICATION_TYPE":"U","ELEMENT_SET_NO":"999","GP_ID":"231396508","MEAN_MOTION":"15.06447995","TLE_LINE1":"1 47657U 21012AP  23127.16970329  .00023693  00000-0  16021-2 0  9992","CENTER_NAME":"EARTH","MEAN_MOTION_DDOT":"0.0000000000000","MEAN_ELEMENT_THEORY":"SGP4","MEAN_ANOMALY":"270.0871","FILE":"3903215"},{"DECAY_DATE":null,"BSTAR":"0.00146950000000","RA_OF_ASC_NODE":"49.2578","NORAD_CAT_ID":"47658","GP_ID":"231397759","MEAN_MOTION":"15.06426514","PERIAPSIS":"546.149","CLASSIFICATION_TYPE":"U","ELEMENT_SET_NO":"999","TLE_LINE1":"1 47658U 21012AQ  23127.16234262  .00021690  00000-0  14695-2 0  9992","CENTER_NAME":"EARTH","MEAN_ELEMENT_THEORY":"SGP4","MEAN_MOTION_DDOT":"0.0000000000000","FILE":"3903215","MEAN_ANOMALY":"249.3651","LAUNCH_DATE":"2021-02-16","OBJECT_TYPE":"PAYLOAD","REF_FRAME":"TEME","TLE_LINE2":"2 47658  53.0546  49.2578 0001420 110.7490 249.3651 15.06426514123627","ARG_OF_PERICENTER":"110.7490","ECCENTRICITY":"0.00014200","APOAPSIS":"548.116","PERIOD":"95.590","OBJECT_ID":"2021-012AQ","COUNTRY_CODE":"US","INCLINATION":"53.0546","OBJECT_NAME":"STARLINK-2042","SITE":"AFETR","EPOCH":"2023-05-07T03:53:46.402368","TIME_SYSTEM":"UTC","EPHEMERIS_TYPE":"0","SEMIMAJOR_AXIS":"6925.267","MEAN_MOTION_DOT":"0.00021690","RCS_SIZE":"LARGE","REV_AT_EPOCH":"12362"}];
